     2.100          NAVIGATION                              RINEX VERSION / TYPE
fic2rin                                 11/20/2015 00:48:53 PGM / RUN BY / DATE
                                                            END OF HEADER
11 15 11 19 12  0  0.0 -.617044977844D-03 -.216004991671D-11  .000000000000D+00
     .780000000000D+02 -.790000000000D+02  .645205446825D-08  .890342056195D+00
    -.420771539211D-05  .162920260336D-01  .636279582977D-05  .515363674736D+04
     .388800000000D+06 -.223517417908D-06  .859013514847D+00 -.126659870148D-06
     .894635025871D+00  .227281250000D+03  .148205945240D+01 -.930538760674D-08
    -.168935608275D-09  .100000000000D+01  .187100000000D+04  .000000000000D+00
     .340000000000D+01  .000000000000D+00 -.121071934700D-07  .780000000000D+02
     .381606000000D+06  .400000000000D+01
12 15 11 19 12  0  0.0  .346654094756D-03  .306954461848D-11  .000000000000D+00
     .340000000000D+02  .419687500000D+02  .390444835023D-08  .367620342897D+00
     .210665166378D-05  .555430655368D-02  .786595046520D-05  .515357664871D+04
     .388800000000D+06  .279396772385D-07 -.828502958291D+00  .169500708580D-06
     .990212420356D+00  .248625000000D+03  .640788902904D+00 -.790568644643D-08
     .237152735506D-09  .100000000000D+01  .187100000000D+04  .000000000000D+00
     .240000000000D+01  .000000000000D+00 -.125728547573D-07  .340000000000D+02
     .381606000000D+06  .400000000000D+01
13 15 11 19 12  0  0.0 -.165391713381D-03 -.272848410532D-11  .000000000000D+00
     .680000000000D+02  .230312500000D+02  .439375444608D-08  .169885115071D+01
     .119209289551D-05  .464959221426D-02  .620819628239D-05  .515368354797D+04
     .388800000000D+06  .106170773506D-06 -.286062470091D+01 -.372529029846D-08
     .973121607792D+00  .265656250000D+03  .202971303337D+01 -.805319259065D-08
    -.138934358602D-09  .100000000000D+01  .187100000000D+04  .000000000000D+00
     .240000000000D+01  .000000000000D+00 -.111758708954D-07  .680000000000D+02
     .381606000000D+06  .400000000000D+01
14 15 11 19 12  0  0.0  .207149423659D-04 -.238742359215D-11  .000000000000D+00
     .520000000000D+02  .283125000000D+02  .456304721209D-08 -.270281728024D+01
     .157766044140D-05  .836801575497D-02  .613182783127D-05  .515368098259D+04
     .388800000000D+06  .540167093277D-07 -.289640291680D+01 -.502914190292D-07
     .965616503038D+00  .263562500000D+03 -.194767265917D+01 -.799426156451D-08
    -.692886004340D-10  .100000000000D+01  .187100000000D+04  .000000000000D+00
     .240000000000D+01  .000000000000D+00 -.931322574615D-08  .520000000000D+02
     .381606000000D+06  .400000000000D+01
15 15 11 19 12  0  0.0 -.282930210233D-03 -.193267624127D-11  .000000000000D+00
     .620000000000D+02  .292500000000D+02  .537915263473D-08  .285172268933D+01
     .148266553879D-05  .776893075090D-02  .603124499321D-05  .515375043488D+04
     .388800000000D+06 -.540167093277D-07 -.302627372237D+01 -.800937414169D-07
     .932366309073D+00  .249531250000D+03  .435395071450D+00 -.847285292833D-08
    -.728601777760D-10  .100000000000D+01  .187100000000D+04  .000000000000D+00
     .240000000000D+01  .000000000000D+00 -.107102096081D-07  .620000000000D+02
     .381606000000D+06  .400000000000D+01
16 15 11 19 12  0  0.0 -.651106238365D-04  .363797880709D-11  .000000000000D+00
     .950000000000D+02  .432500000000D+02  .380051544958D-08 -.166824738726D+01
     .198185443878D-05  .819604611024D-02  .847317278385D-05  .515366164017D+04
     .388800000000D+06  .614672899246D-07 -.809771724483D+00 -.132247805595D-06
     .990749890607D+00  .229000000000D+03  .315054249674D+00 -.779496754883D-08
     .388944772540D-09  .100000000000D+01  .187100000000D+04  .000000000000D+00
     .340000000000D+01  .000000000000D+00 -.102445483208D-07  .950000000000D+02
     .381606000000D+06  .400000000000D+01
17 15 11 19 12  0  0.0 -.194405205548D-03 -.102318153949D-11  .000000000000D+00
     .650000000000D+02 -.355000000000D+02  .445089968355D-08 -.264318202307D+01
    -.179745256901D-05  .106673116097D-01  .476464629173D-05  .515359780693D+04
     .388800000000D+06  .247731804848D-06  .213963005767D+00 -.428408384323D-07
     .974593478930D+00  .292343750000D+03 -.199541565339D+01 -.805854995667D-08
     .169292766009D-09  .100000000000D+01  .187100000000D+04  .000000000000D+00
     .240000000000D+01  .000000000000D+00 -.107102096081D-07  .650000000000D+02
     .381606000000D+06  .400000000000D+01
18 15 11 19 12  0  0.0  .454450957477D-03  .375166564481D-11  .000000000000D+00
     .570000000000D+02  .308125000000D+02  .545879880945D-08 -.110445125575D+01
     .170990824699D-05  .163817564026D-01  .100359320641D-04  .515364420891D+04
     .388800000000D+06  .372529029846D-07  .223742851143D+01  .463798642159D-06
     .924854047723D+00  .168937500000D+03 -.192931063956D+01 -.861071581373D-08
     .985755346381D-10  .100000000000D+01  .187100000000D+04  .000000000000D+00
     .240000000000D+01  .000000000000D+00 -.111758708954D-07  .570000000000D+02
     .381606000000D+06  .400000000000D+01
19 15 11 19 12  0  0.0 -.522911548615D-03 -.341060513165D-12  .000000000000D+00
     .430000000000D+02 -.305625000000D+02  .465555106525D-08  .162127756134D+01
    -.152550637722D-05  .113200127380D-01  .492110848427D-05  .515516598129D+04
     .388800000000D+06 -.189989805222D-06  .263093010171D+00  .147148966789D-06
     .971642212867D+00  .294343750000D+03  .660838572613D+00 -.830856037060D-08
     .332156692802D-10  .100000000000D+01  .187100000000D+04  .000000000000D+00
     .240000000000D+01  .000000000000D+00 -.149011611938D-07  .430000000000D+02
     .381606000000D+06  .400000000000D+01
20 15 11 19 12  0  0.0  .372141133994D-03  .284217094304D-11  .000000000000D+00
     .104000000000D+03  .267812500000D+02  .531700718898D-08  .292696981472D+01
     .132434070110D-05  .501375051681D-02  .100545585155D-04  .515366830635D+04
     .388800000000D+06  .484287738800D-07  .218533292631D+01  .372529029846D-08
     .926047149581D+00  .166187500000D+03  .127545045682D+01 -.833606151614D-08
     .131791203918D-09  .100000000000D+01  .187100000000D+04  .000000000000D+00
     .240000000000D+01  .000000000000D+00 -.838190317154D-08  .104000000000D+03
     .381606000000D+06  .400000000000D+01
21 15 11 19 12  0  0.0 -.494420528412D-03 -.238742359215D-11  .000000000000D+00
     .910000000000D+02 -.641875000000D+02  .534486549224D-08 -.183867040195D+00
    -.326149165630D-05  .226835443173D-01  .920332968235D-05  .515372306824D+04
     .388800000000D+06 -.203028321266D-06  .119444837848D+01  .199303030968D-06
     .934716238272D+00  .190500000000D+03 -.186170301575D+01 -.892180020022D-08
    -.150006248362D-09  .100000000000D+01  .187100000000D+04  .000000000000D+00
     .240000000000D+01  .000000000000D+00 -.116415321827D-07  .910000000000D+02
     .381606000000D+06  .400000000000D+01
22 15 11 19 12  0  0.0  .411975663155D-03  .341060513165D-11  .000000000000D+00
     .660000000000D+02  .273125000000D+02  .535343727787D-08 -.158958165200D+01
     .133737921715D-05  .799948675558D-02  .102873891592D-04  .515367122841D+04
     .388800000000D+06  .260770320892D-06  .223827420975D+01  .670552253723D-07
     .922689473172D+00  .160031250000D+03 -.204855014880D+01 -.831891794490D-08
     .139291516336D-09  .100000000000D+01  .187100000000D+04  .000000000000D+00
     .340000000000D+01  .000000000000D+00 -.176951289177D-07  .660000000000D+02
     .381606000000D+06  .400000000000D+01
23 15 11 19 12  0  0.0 -.145270023495D-03 -.204636307899D-11  .000000000000D+00
     .600000000000D+01  .346875000000D+02  .506806824824D-08  .240731856166D+01
     .161863863468D-05  .103829851141D-01  .610761344433D-05  .515376676559D+04
     .388800000000D+06 -.173225998878D-06 -.297140651899D+01 -.987201929092D-07
     .947546435055D+00  .256031250000D+03 -.262191489392D+01 -.830070290045D-08
    -.664313385605D-10  .100000000000D+01  .187100000000D+04  .000000000000D+00
     .240000000000D+01  .000000000000D+00 -.200234353542D-07  .600000000000D+01
     .381606000000D+06  .400000000000D+01
24 15 11 19 12  0  0.0 -.817794352770D-05 -.568434188608D-12  .000000000000D+00
     .220000000000D+02  .111562500000D+02  .468626663039D-08  .178477121585D+01
     .502914190292D-06  .374586868566D-02  .808201730251D-05  .515365038109D+04
     .388800000000D+06  .186264514923D-08 -.194496403270D+01  .894069671631D-07
     .951513649449D+00  .217593750000D+03  .294094700510D+00 -.823069998455D-08
    -.288226291496D-09  .100000000000D+01  .187100000000D+04  .000000000000D+00
     .240000000000D+01  .000000000000D+00  .279396772385D-08  .220000000000D+02
     .381606000000D+06  .400000000000D+01
25 15 11 19 12  0  0.0 -.698403455317D-04 -.579802872380D-11  .000000000000D+00
     .620000000000D+02  .487500000000D+02  .412945772278D-08 -.264445109280D+00
     .255741178989D-05  .472916383296D-02  .794604420662D-05  .515360371971D+04
     .388800000000D+06  .838190317154D-07 -.877177793290D+00  .838190317154D-07
     .978562823332D+00  .239343750000D+03  .713798155690D+00 -.806569311135D-08
     .252153360342D-09  .100000000000D+01  .187100000000D+04  .000000000000D+00
     .240000000000D+01  .000000000000D+00  .558793544769D-08  .620000000000D+02
     .381606000000D+06  .400000000000D+01
27 15 11 19 12  0  0.0  .372040085495D-04  .318323145621D-11  .000000000000D+00
     .540000000000D+02 -.176875000000D+02  .467162316328D-08 -.268360432799D+01
    -.964850187302D-06  .276200240478D-02  .477209687233D-05  .515370440292D+04
     .388800000000D+06 -.838190317154D-07  .165178620147D+00 -.502914190292D-07
     .969533059504D+00  .293656250000D+03  .276314005039D+00 -.828891669522D-08
     .152863510236D-09  .100000000000D+01  .187100000000D+04  .000000000000D+00
     .240000000000D+01  .000000000000D+00  .186264514923D-08  .540000000000D+02
     .381606000000D+06  .400000000000D+01
